sat19143
1 19143U 78100P   20046.75369296 -.00000994  00000-0 -42832-2 0  9998
2 19143  81.7055 305.4263 0313128 214.9531 216.9523 12.67850322464370
